E-ST@R-II               
1 41459U 16025D   22299.47738262  .00021167  00000+0  84747-3 0  9999
2 41459  98.1953 114.7059 0137435 183.5128 176.5129 15.16717517357331
AAUSAT 4                
1 41460U 16025E   22299.21393938  .00028430  00000+0  95056-3 0  9995
2 41460  98.1812 121.9688 0113093 156.0169 257.8475 15.24927377357826
BEESAT-4                
1 41619U 16040W   22299.40054746  .00013871  00000+0  40886-3 0  9994
2 41619  97.2004 346.7231 0008456  18.8429 341.3126 15.35095957340787
RAVAN                   
1 41849U 16067B   22299.36466279  .00002887  00000+0  22723-3 0  9996
2 41849  98.0061  80.3022 0015518 253.4976 106.4542 15.01590631325635
CELTEE 1                
1 41850U 16067C   22299.37428673  .00002022  00000+0  17187-3 0  9994
2 41850  98.0148  74.8653 0008503 257.4389 102.5882 14.99038006325362
OPTICUBE 04             
1 41851U 16067D   22299.35428084  .00000823  00000+0  74698-4 0  9997
2 41851  98.0157  73.7181 0007575 267.8505  92.1849 14.98169929325309
AEROCUBE 8D             
1 41852U 16067E   22299.37006436  .00002301  00000+0  19493-3 0  9997
2 41852  98.0123  73.8601 0009303 261.5263  98.4905 14.99015380325308
AEROCUBE 8C             
1 41853U 16067F   22299.35365788  .00001681  00000+0  14390-3 0  9995
2 41853  98.0137  73.6532 0008956 270.5135  89.5061 14.98999965325297
PROMETHEUS 2-1          
1 41854U 16067G   22299.34070301  .00004304  00000+0  34486-3 0  9992
2 41854  98.0241  75.0048 0015634 273.4973  86.4462 15.00611367325365
PROMETHEUS 2-3          
1 41855U 16067H   22299.33187553  .00004530  00000+0  36294-3 0  9990
2 41855  98.0197  75.0602 0013428 298.0128  61.9736 15.00612589325365
INS-1B                  
1 41954U 17008G   22299.44108406  .00013482  00000+0  39617-3 0  9996
2 41954  97.2416 356.7876 0008265 121.8947 238.3102 15.35200711316812
BGUSAT                  
1 41999U 17008BD  22299.18532387  .00043142  00000+0  73759-3 0  9996
2 41999  97.2663   9.7783 0005004 115.3325 244.8446 15.51148179316824
DIDO-2                  
1 42000U 17008BE  22299.41134329  .00005981  00000+0  20500-3 0  9995
2 42000  97.2413 355.4380 0008144 143.0106 217.1698 15.30524618316081
PEASSS                  
1 42015U 17008BV  22299.14488477  .00010749  00000+0  32029-3 0  9994
2 42015  97.2479 359.7982 0006019 134.0627 226.1113 15.34835567316793
AL-FARABI 1             
1 42016U 17008BW  22299.45740934  .00018235  00000+0  47069-3 0  9996
2 42016  97.2545   3.8991 0005240 130.4712 229.6992 15.39189073317169
NAYIF-1 (EO-88)         
1 42017U 17008BX  22299.13342976  .00017650  00000+0  45271-3 0  9999
2 42017  97.2542   3.6094 0005460 130.0817 230.0909 15.39389309317141
UCLSAT                  
1 42765U 17036A   22299.35613825  .00011124  00000+0  35054-3 0  9996
2 42765  97.1822 338.0706 0007875 204.0585 156.0291 15.33030594297884
LITUANICASAT-2          
1 42768U 17036D   22299.37325323  .00031469  00000+0  70308-3 0  9999
2 42768  97.1890 342.3879 0008974 182.4303 177.6903 15.43420445297382
AALTO-1                 
1 42775U 17036L   22299.34759387  .00005770  00000+0  21689-3 0  9999
2 42775  97.1842 332.2475 0010882 214.2572 145.7967 15.27479996296742
URSA MAIOR              
1 42776U 17036M   22299.07729949  .00007003  00000+0  25684-3 0  9991
2 42776  97.1856 332.8612 0010562 213.2120 146.8459 15.28225219296746
COMPASS 2               
1 42777U 17036N   22299.42106302  .00017835  00000+0  48325-3 0  9994
2 42777  97.1886 340.9998 0008625 188.0546 172.0562 15.37671768297230
DIAMOND RED             
1 42783U 17036U   22299.38773618  .00007760  00000+0  27130-3 0  9993
2 42783  97.1854 335.7587 0008847 214.5213 145.5454 15.29772152296942
PEGASUS                 
1 42784U 17036V   22299.36341287  .00009490  00000+0  31041-3 0  9993
2 42784  97.1844 337.1864 0008557 209.3113 150.7650 15.31874032297035
DIAMOND GREEN           
1 42785U 17036W   22299.38813644  .00008207  00000+0  28645-3 0  9998
2 42785  97.1857 335.8239 0008658 215.6742 144.3921 15.29809966297010
DIAMOND BLUE            
1 42786U 17036X   22299.06028744  .00008878  00000+0  30975-3 0  9996
2 42786  97.1861 335.4989 0008698 217.5696 142.4938 15.29799688296966
NUDTSAT                 
1 42787U 17036Y   22299.57232961  .00031493  00000+0  80713-3 0  9995
2 42787  97.1869 342.6479 0006594 193.3950 166.7121 15.39290020297226
SUCHAI                  
1 42788U 17036Z   22298.85651513  .00014661  00000+0  44150-3 0  9997
2 42788  97.1848 338.7324 0007925 203.2038 156.8849 15.34409004297154
SKCUBE                  
1 42789U 17036AA  22299.38735992  .00011564  00000+0  36163-3 0  9995
2 42789  97.1845 338.5384 0008094 203.3152 156.7725 15.33265243297114
VZLUSAT-1               
1 42790U 17036AB  22299.40166439  .00019098  00000+0  49615-3 0  9990
2 42790  97.1861 342.4140 0007209 189.5618 170.5492 15.38968405297342
ROBUSTA 1B              
1 42792U 17036AD  22299.35457548  .00012166  00000+0  37079-3 0  9990
2 42792  97.1842 339.1870 0007567 201.5649 158.5276 15.34075652297167
CICERO 6                
1 42793U 17036AE  22299.35651344  .00006598  00000+0  23307-3 0  9992
2 42793  97.1832 336.2114 0007524 213.0657 147.0115 15.29501172297065
CORVUS BC2              
1 42846U 17042X   22299.50527631  .00001167  00000+0  11657-3 0  9998
2 42846  97.4057 149.3170 0007784 280.4649  79.5694 14.93251504287834
CORVUS BC1              
1 42847U 17042Y   22299.51017782  .00001077  00000+0  10774-3 0  9990
2 42847  97.4058 149.6489 0007468 279.3238  80.7138 14.93335410287849
MIRATA                  
1 43015U 17073C   22299.43249673  .00004905  00000+0  34648-3 0  9998
2 43015  97.6563 189.8994 0234418 109.7284 252.9380 14.85747971266705
MAKERSAT 0              
1 43016U 17073D   22299.43000536  .00003295  00000+0  24123-3 0  9990
2 43016  97.6575 189.1316 0242953 115.2855 247.3746 14.83518301266603
CORVUS BC3              
1 43118U 18004H   22299.45888744  .00007105  00000+0  25220-3 0  9998
2 43118  97.3509  10.5408 0007407 255.5671 104.4748 15.29329526266229
MICROMAS-2A             
1 43131U 18004W   22299.48663542  .00028537  00000+0  64012-3 0  9997
2 43131  97.3660  19.5492 0005242 233.1816 126.8951 15.43351595266739
SPACEBEE-4              
1 43139U 18004AE  22299.51278418  .00119063  00000+0  12645-2 0  9992
2 43139  97.3733  27.0604 0005779 242.3500 117.7172 15.63655911267167
CICERO 7                
1 43143U 18004AJ  22299.19915391  .00012037  00000+0  32537-3 0  9995
2 43143  97.3649  18.0232 0004367 242.1507 117.9296 15.37870318266633
GOMX-4B                 
1 43196U 18015E   22299.34406394  .00006192  00000+0  22322-3 0  9996
2 43196  97.5523  80.2308 0015868 318.3912  41.6119 15.28805605263140
GOMX-4A                 
1 43197U 18015F   22299.42637443  .00010122  00000+0  34145-3 0  9991
2 43197  97.5504  81.4827 0015371 316.3031 122.1643 15.30798508263242
AEROCUBE 12A            
1 43556U 18046C   22299.31783403  .00023647  00000+0  50007-3 0  9991
2 43556  51.6349 263.6324 0007736 134.9505 225.2111 15.44997164239502
AEROCUBE 12B            
1 43557U 18046D   22299.33604690  .00017509  00000+0  41703-3 0  9997
2 43557  51.6362 270.4134 0007672 132.8805 227.2826 15.41655310239362
SURFSAT                 
1 43614U 18070B   22299.34595383  .00060371  00000+0  53915-3 0  9990
2 43614  93.0081 154.6287 0006280 188.5699 171.5465 15.68193048231477
CP7 (DAVE)              
1 43615U 18070C   22299.31920071  .00046807  00000+0  47233-3 0  9998
2 43615  93.0075 154.2957 0006704 196.6750 163.4299 15.65184799231419
CUBEBEL-1 (BSUSAT-1)    
1 43666U 18083E   22299.50092810  .00011962  00000+0  47171-3 0  9995
2 43666  97.4126 326.8272 0010875 225.1583 272.7402 15.25665524221441
CICERO 10               
1 43690U 18088A   22299.27952756  .00008936  00000+0  33527-3 0  9992
2 43690  85.0388 229.3701 0014751  35.2316 324.9900 15.26959330219707
IRVINE01                
1 43693U 18088D   22299.25115048  .00060695  00000+0  10493-2 0  9994
2 43693  85.0280 221.5040 0008010  27.8268 332.3416 15.50699216220387
PROXIMA I               
1 43694U 18088E   22299.29279398  .00009056  00000+0  32134-3 0  9999
2 43694  85.0321 225.7199 0015981   1.8856 358.2446 15.28773209219945
PROXIMA II              
1 43696U 18088G   22299.29526917  .00008700  00000+0  30903-3 0  9990
2 43696  85.0330 225.7433 0016058   1.8163 358.3138 15.28732972219935
FACSAT-1                
1 43721U 18096C   22299.43430970  .00028972  00000+0  68003-3 0  9992
2 43721  97.3413  19.4911 0011310 301.7735 187.1079 15.41936305218116
CENTAURI-2              
1 43722U 18096D   22299.18638877  .00035785  00000+0  68905-3 0  9992
2 43722  97.3473  22.1348 0010704 294.1908  65.8223 15.47742268218236
INNOSAT-2               
1 43738U 18096V   22299.40657350  .00190319  00000+0  14416-2 0  9993
2 43738  97.3552  32.4073 0011133 270.5065 155.1791 15.71737210218881
SIRION PATHFINDER-2     
1 43759U 18099B   22299.48907315  .00000993  00000+0  91516-4 0  9992
2 43759  97.6068   2.7680 0013763 176.1012 184.0319 14.96818097212641
CORVUS BC4              
1 43767U 18099K   22299.42877347  .00001390  00000+0  12812-3 0  9999
2 43767  97.6016   1.0236 0011296 181.8774 178.2407 14.96226171212558
MOVE-II                 
1 43780U 18099Y   22299.45635409  .00004319  00000+0  36217-3 0  9997
2 43780  97.6101   3.8349 0013145 183.2225 176.8915 14.98831455212675
SPACEBEE-7              
1 43816U 18099BL  22299.12471987  .00003318  00000+0  28157-3 0  9992
2 43816  97.6123   4.2339 0013511 169.1977 190.9539 14.98522854212216
SPACEBEE-5              
1 43817U 18099BM  22299.15897829  .00008207  00000+0  60377-3 0  9995
2 43817  97.6213   8.1086 0005773 165.8923 194.2465 15.03630789212392
SPACEBEE-6              
1 43818U 18099BN  22298.64417707  .00004417  00000+0  35965-3 0  9996
2 43818  97.6154   4.9398 0013633 178.9647 181.1607 14.99948932212343
